{"type": "FeatureCollection", "features": [ {"type": "Feature", "properties": {"norad_id": 60989, "name": "SENTINEL-2C", "group": "resource", "lat": -70.91987547841289, "lon": 99.79106624717424, "alt_km": 797.2389501552143, "timestamp": "2025-12-27T16:33:29.893907+00:00", "meta": {"OBJECT_NAME": "SENTINEL-2C", "OBJECT_ID": "2024-157A", "EPOCH": "2025-12-27T11:51:48.918816", "MEAN_MOTION": 14.30818428, "ECCENTRICITY": 0.0001368, "INCLINATION": 98.5665, "RA_OF_ASC_NODE": 73.7631, "ARG_OF_PERICENTER": 101.7105, "MEAN_ANOMALY": 258.4231, "EPHEMERIS_TYPE": 0, "CLASSIFICATION_TYPE": "U", "NORAD_CAT_ID": 60989, "ELEMENT_SET_NO": 999, "REV_AT_EPOCH": 6843, "BSTAR": 7.9815e-05, "MEAN_MOTION_DOT": 1.66e-06, "MEAN_MOTION_DDOT": 0}, "tle": {"line1": "1 60989U 24157A   25361.49431619  .00000166  00000+0  79815-4 0  9991", "line2": "2 60989  98.5665  73.7631 0001368 101.7105 258.4231 14.30818428 68438"}}, "geometry": {"type": "Point", "coordinates": [99.79106624717424, -70.91987547841289]}}, {"type": "Feature", "properties": {"norad_id": 61735, "name": "IONOSFERA-M 1", "group": "resource", "lat": 60.50736148073551, "lon": 67.20392125154893, "alt_km": 810.3448596139824, "timestamp": "2025-12-27T16:33:29.893918+00:00", "meta": {"OBJECT_NAME": "IONOSFERA-M 1", "OBJECT_ID": "2024-199A", "EPOCH": "2025-12-27T12:37:43.768128", "MEAN_MOTION": 14.22717351, "ECCENTRICITY": 2.22e-05, "INCLINATION": 98.7395, "RA_OF_ASC_NODE": 231.2602, "ARG_OF_PERICENTER": 359.7807, "MEAN_ANOMALY": 0.3371, "EPHEMERIS_TYPE": 0, "CLASSIFICATION_TYPE": "U", "NORAD_CAT_ID": 61735, "ELEMENT_SET_NO": 999, "REV_AT_EPOCH": 10329, "BSTAR": 5.1281e-05, "MEAN_MOTION_DOT": 7.1e-07, "MEAN_MOTION_DDOT": 0}, "tle": {"line1": "1 61735U 24199A   25361.52620102  .00000071  00000+0  51281-4 0  9990", "line2": "2 61735  98.7395 231.2602 0000222 359.7807   0.3371 14.22717351103298"}}, "geometry": {"type": "Point", "coordinates": [67.20392125154893, 60.50736148073551]}}, {"type": "Feature", "properties": {"norad_id": 61736, "name": "IONOSFERA-M 2", "group": "resource", "lat": -57.97698617305067, "lon": -114.42712324678911, "alt_km": 824.4073100096139, "timestamp": "2025-12-27T16:33:29.893928+00:00", "meta": {"OBJECT_NAME": "IONOSFERA-M 2", "OBJECT_ID": "2024-199B", "EPOCH": "2025-12-27T13:27:35.382816", "MEAN_MOTION": 14.22719532, "ECCENTRICITY": 0.0001877, "INCLINATION": 98.7394, "RA_OF_ASC_NODE": 231.2069, "ARG_OF_PERICENTER": 91.5002, "MEAN_ANOMALY": 268.6391, "EPHEMERIS_TYPE": 0, "CLASSIFICATION_TYPE": "U", "NORAD_CAT_ID": 61736, "ELEMENT_SET_NO": 999, "REV_AT_EPOCH": 10642, "BSTAR": 4.984e-05, "MEAN_MOTION_DOT": 6.7e-07, "MEAN_MOTION_DDOT": 0}, "tle": {"line1": "1 61736U 24199B   25361.56082619  .00000067  00000+0  49840-4 0  9993", "line2": "2 61736  98.7394 231.2069 0001877  91.5002 268.6391 14.22719532106422"}}, "geometry": {"type": "Point", "coordinates": [-114.42712324678911, -57.97698617305067]}}, {"type": "Feature", "properties": {"norad_id": 63772, "name": "BIOMASS", "group": "resource", "lat": 20.97281856581064, "lon": -176.63790829115354, "alt_km": 668.5293973537782, "timestamp": "2025-12-27T16:33:29.893938+00:00", "meta": {"OBJECT_NAME": "BIOMASS", "OBJECT_ID": "2025-090A", "EPOCH": "2025-12-27T00:05:53.851200", "MEAN_MOTION": 14.67535929, "ECCENTRICITY": 0.00010413, "INCLINATION": 98.0692, "RA_OF_ASC_NODE": 185.8039, "ARG_OF_PERICENTER": 86.5947, "MEAN_ANOMALY": 273.5377, "EPHEMERIS_TYPE": 0, "CLASSIFICATION_TYPE": "U", "NORAD_CAT_ID": 63772, "ELEMENT_SET_NO": 999, "REV_AT_EPOCH": 3543, "BSTAR": 0.0002500388, "MEAN_MOTION_DOT": 1.37e-05, "MEAN_MOTION_DDOT": 0}, "tle": {"line1": "1 63772U 25090A   25361.00409550  .00001370  00000+0  25004-3 0  9995", "line2": "2 63772  98.0692 185.8039 0001041  86.5947 273.5377 14.67535929 35430"}}, "geometry": {"type": "Point", "coordinates": [-176.63790829115354, 20.97281856581064]}}, {"type": "Feature", "properties": {"norad_id": 64694, "name": "GOSAT-GW (IBUKI GW)", "group": "resource", "lat": -51.538491313124986, "lon": 106.67737123172702, "alt_km": 676.7269163912997, "timestamp": "2025-12-27T16:33:29.893948+00:00", "meta": {"OBJECT_NAME": "GOSAT-GW (IBUKI GW)", "OBJECT_ID": "2025-141A", "EPOCH": "2025-12-27T07:19:18.626016", "MEAN_MOTION": 14.67557386, "ECCENTRICITY": 0.00014662, "INCLINATION": 98.0442, "RA_OF_ASC_NODE": 296.5549, "ARG_OF_PERICENTER": 82.1908, "MEAN_ANOMALY": 277.9463, "EPHEMERIS_TYPE": 0, "CLASSIFICATION_TYPE": "U", "NORAD_CAT_ID": 64694, "ELEMENT_SET_NO": 999, "REV_AT_EPOCH": 2663, "BSTAR": 0.00021991766, "MEAN_MOTION_DOT": 1.2e-05, "MEAN_MOTION_DDOT": 0}, "tle": {"line1": "1 64694U 25141A   25361.30507669  .00001200  00000+0  21992-3 0  9993", "line2": "2 64694  98.0442 296.5549 0001466  82.1908 277.9463 14.67557386 26630"}}, "geometry": {"type": "Point", "coordinates": [106.67737123172702, -51.538491313124986]}}, {"type": "Feature", "properties": {"norad_id": 64876, "name": "IONOSFERA-M 3", "group": "resource", "lat": -79.25030230027949, "lon": 15.814094752841594, "alt_km": 828.4013288622364, "timestamp": "2025-12-27T16:33:29.893958+00:00", "meta": {"OBJECT_NAME": "IONOSFERA-M 3", "OBJECT_ID": "2025-155A", "EPOCH": "2025-12-27T11:52:56.987328", "MEAN_MOTION": 14.2144471, "ECCENTRICITY": 0.0001745, "INCLINATION": 98.5803, "RA_OF_ASC_NODE": 322.945, "ARG_OF_PERICENTER": 35.84, "MEAN_ANOMALY": 324.2895, "EPHEMERIS_TYPE": 0, "CLASSIFICATION_TYPE": "U", "NORAD_CAT_ID": 64876, "ELEMENT_SET_NO": 999, "REV_AT_EPOCH": 2201, "BSTAR": 7.032e-05, "MEAN_MOTION_DOT": 1.11e-06, "MEAN_MOTION_DDOT": 0}, "tle": {"line1": "1 64876U 25155A   25361.49510402  .00000111  00000+0  70320-4 0  9999", "line2": "2 64876  98.5803 322.9450 0001745  35.8400 324.2895 14.21444710 22014"}}, "geometry": {"type": "Point", "coordinates": [15.814094752841594, -79.25030230027949]}}, {"type": "Feature", "properties": {"norad_id": 64877, "name": "IONOSFERA-M 4", "group": "resource", "lat": 78.76949445430171, "lon": -167.4484866642645, "alt_km": 812.5223656390162, "timestamp": "2025-12-27T16:33:29.893968+00:00", "meta": {"OBJECT_NAME": "IONOSFERA-M 4", "OBJECT_ID": "2025-155B", "EPOCH": "2025-12-27T12:43:25.733280", "MEAN_MOTION": 14.21445902, "ECCENTRICITY": 0.000121, "INCLINATION": 98.5803, "RA_OF_ASC_NODE": 322.8984, "ARG_OF_PERICENTER": 50.2005, "MEAN_ANOMALY": 309.9279, "EPHEMERIS_TYPE": 0, "CLASSIFICATION_TYPE": "U", "NORAD_CAT_ID": 64877, "ELEMENT_SET_NO": 999, "REV_AT_EPOCH": 2201, "BSTAR": 6.9421e-05, "MEAN_MOTION_DOT": 1.09e-06, "MEAN_MOTION_DDOT": 0}, "tle": {"line1": "1 64877U 25155B   25361.53015895  .00000109  00000+0  69421-4 0  9998", "line2": "2 64877  98.5803 322.8984 0001210  50.2005 309.9279 14.21445902 22015"}}, "geometry": {"type": "Point", "coordinates": [-167.4484866642645, 78.76949445430171]}}, {"type": "Feature", "properties": {"norad_id": 64899, "name": "MICROCARB", "group": "resource", "lat": 81.7406588135724, "lon": -27.523120363247887, "alt_km": 634.659931553123, "timestamp": "2025-12-27T16:33:29.893978+00:00", "meta": {"OBJECT_NAME": "MICROCARB", "OBJECT_ID": "2025-156A", "EPOCH": "2025-12-27T04:43:23.827584", "MEAN_MOTION": 14.72080893, "ECCENTRICITY": 0.00176712, "INCLINATION": 98.0009, "RA_OF_ASC_NODE": 76.3095, "ARG_OF_PERICENTER": 101.5211, "MEAN_ANOMALY": 258.7982, "EPHEMERIS_TYPE": 0, "CLASSIFICATION_TYPE": "U", "NORAD_CAT_ID": 64899, "ELEMENT_SET_NO": 999, "REV_AT_EPOCH": 2266, "BSTAR": 0.00014485368, "MEAN_MOTION_DOT": 8.63e-06, "MEAN_MOTION_DDOT": 0}, "tle": {"line1": "1 64899U 25156A   25361.19680356  .00000863  00000+0  14485-3 0  9991", "line2": "2 64899  98.0009  76.3095 0017671 101.5211 258.7982 14.72080893 22666"}}, "geometry": {"type": "Point", "coordinates": [-27.523120363247887, 81.7406588135724]}}, {"type": "Feature", "properties": {"norad_id": 64900, "name": "CO3D 3", "group": "resource", "lat": -19.5848181253828, "lon": -104.81993073908114, "alt_km": 511.124887323178, "timestamp": "2025-12-27T16:33:29.893988+00:00", "meta": {"OBJECT_NAME": "CO3D 3", "OBJECT_ID": "2025-156B", "EPOCH": "2025-12-27T12:31:24.282912", "MEAN_MOTION": 15.20198828, "ECCENTRICITY": 0.0001347, "INCLINATION": 97.4339, "RA_OF_ASC_NODE": 77.677, "ARG_OF_PERICENTER": 65.3377, "MEAN_ANOMALY": 294.7998, "EPHEMERIS_TYPE": 0, "CLASSIFICATION_TYPE": "U", "NORAD_CAT_ID": 64900, "ELEMENT_SET_NO": 999, "REV_AT_EPOCH": 2345, "BSTAR": 0.00042195, "MEAN_MOTION_DOT": 9.077e-05, "MEAN_MOTION_DDOT": 0}, "tle": {"line1": "1 64900U 25156B   25361.52180883  .00009077  00000+0  42195-3 0  9996", "line2": "2 64900  97.4339  77.6770 0001347  65.3377 294.7998 15.20198828 23452"}}, "geometry": {"type": "Point", "coordinates": [-104.81993073908114, -19.5848181253828]}}, {"type": "Feature", "properties": {"norad_id": 64901, "name": "CO3D 4", "group": "resource", "lat": -18.746256266627338, "lon": -104.69706912119254, "alt_km": 509.73142216301767, "timestamp": "2025-12-27T16:33:29.893998+00:00", "meta": {"OBJECT_NAME": "CO3D 4", "OBJECT_ID": "2025-156C", "EPOCH": "2025-12-27T12:31:37.762176", "MEAN_MOTION": 15.20213189, "ECCENTRICITY": 0.0001479, "INCLINATION": 97.4337, "RA_OF_ASC_NODE": 77.6771, "ARG_OF_PERICENTER": 147.0802, "MEAN_ANOMALY": 213.0526, "EPHEMERIS_TYPE": 0, "CLASSIFICATION_TYPE": "U", "NORAD_CAT_ID": 64901, "ELEMENT_SET_NO": 999, "REV_AT_EPOCH": 2345, "BSTAR": 0.0003243, "MEAN_MOTION_DOT": 6.962e-05, "MEAN_MOTION_DDOT": 0}, "tle": {"line1": "1 64901U 25156C   25361.52196484  .00006962  00000+0  32430-3 0  9992", "line2": "2 64901  97.4337  77.6771 0001479 147.0802 213.0526 15.20213189 23458"}}, "geometry": {"type": "Point", "coordinates": [-104.69706912119254, -18.746256266627338]}}]}